[{"OBJECT_NAME":"STARLINK-3158","OBJECT_ID":"2021-104AA","EPOCH":"2026-03-09T15:11:17.738880","MEAN_MOTION":15.08831335,"ECCENTRICITY":0.000121,"INCLINATION":53.2166,"RA_OF_ASC_NODE":219.3753,"ARG_OF_PERICENTER":82.4391,"MEAN_ANOMALY":277.6738,"EPHEMERIS_TYPE":0,"CLASSIFICATION_TYPE":"U","NORAD_CAT_ID":49432,"ELEMENT_SET_NO":999,"REV_AT_EPOCH":23876,"BSTAR":0.00011506,"MEAN_MOTION_DOT":1.543e-5,"MEAN_MOTION_DDOT":0},{"OBJECT_NAME":"COSMOS 397 DEB","OBJECT_ID":"1971-015AG","EPOCH":"2026-03-09T22:22:53.777568","MEAN_MOTION":14.12365411,"ECCENTRICITY":0.0445918,"INCLINATION":65.7074,"RA_OF_ASC_NODE":278.293,"ARG_OF_PERICENTER":75.555,"MEAN_ANOMALY":289.457,"EPHEMERIS_TYPE":0,"CLASSIFICATION_TYPE":"U","NORAD_CAT_ID":5144,"ELEMENT_SET_NO":999,"REV_AT_EPOCH":68427,"BSTAR":0.0016503671,"MEAN_MOTION_DOT":7.82e-5,"MEAN_MOTION_DDOT":0}]
